# From MPC191631
403P/Catalina,e,12.3134,163.6940,277.8818,5.434898,0.0777888,0.50384439,165.0715,07/11.0/2026,2000,g 12.0,4.0
# From MPC194203
404P/Bressi,e,9.8037,260.0286,168.7031,4.714636,0.0962791,0.12355941,94.9376,07/11.0/2026,2000,g 10.0,4.0
# From MPC191631
405P/Lemmon,e,9.3761,3.1937,112.3333,3.602501,0.1441445,0.69029744,291.4435,07/11.0/2026,2000,g 17.5,4.0
# From MPC191631
406P/Gibbs,e,1.2098,11.4897,352.4190,3.580731,0.1454610,0.54074542,309.2326,07/11.0/2026,2000,g 17.0,4.0
# From MPC191631
407P/PANSTARRS-Fuls,e,4.8718,80.2280,92.9847,3.492912,0.1509811,0.37488678,357.8207,07/11.0/2026,2000,g 14.0,4.0
# From MPC191631
408P/Novichonok-Gerke,e,19.3446,189.4501,226.7568,4.747842,0.0952708,0.26789437,130.9377,07/11.0/2026,2000,g 11.0,4.0
# From MPC191631
410P/NEAT-LINEAR,e,9.3891,139.8822,313.4116,6.659066,0.0573567,0.51140952,105.6596,07/11.0/2026,2000,g 12.5,4.0
# From MPC191631
411P/Christensen,e,12.3838,77.6383,46.6174,5.812865,0.0703264,0.58192588,140.0438,07/11.0/2026,2000,g 13.5,4.0
# From MPC191632
412P/WISE,e,8.9289,0.8170,155.8193,3.112579,0.1794830,0.47899462,7.4416,07/11.0/2026,2000,g 17.0,4.0
# From MPC191632
413P/Larson,e,15.9472,38.9269,186.6375,3.738511,0.1363503,0.41729066,248.8872,07/11.0/2026,2000,g 14.0,4.0
# From MPC191632
414P/STEREO,e,23.4037,257.8156,210.7200,2.792826,0.2111729,0.81226117,60.7521,07/11.0/2026,2000,g 19.0,4.0
# From MPC191632
415P/Tenagra,e,31.8181,160.2589,345.9902,4.106362,0.1184454,0.19588704,233.3848,07/11.0/2026,2000,g 12.0,4.0
# From MPC191632
416P/Scotti,e,3.3646,355.7194,134.5084,4.005171,0.1229624,0.45571429,242.0830,07/11.0/2026,2000,g 15.5,4.0
# From MPC191632
417P/NEOWISE,e,11.3258,95.2428,142.1111,3.383605,0.1583560,0.53525701,310.2188,07/11.0/2026,2000,g 16.5,4.0
# From MPC191632
418P/LINEAR,e,5.7884,277.2252,307.6715,5.086275,0.0859220,0.66456858,148.4931,07/11.0/2026,2000,g 13.0,4.0
# From MPC191632
419P/PANSTARRS,e,2.7889,40.3145,187.5825,3.542045,0.1478506,0.27160010,255.6540,07/11.0/2026,2000,g 12.5,4.0
# From MPC191632
420P/Hill,e,14.5514,173.2141,156.4093,5.467973,0.0770841,0.49442599,117.0695,07/11.0/2026,2000,g 11.5,4.0
# From MPC191633
422P/Christensen,e,39.5799,36.0075,304.6966,6.270054,0.0627765,0.50517477,103.1941,07/11.0/2026,2000,g 11.0,4.0
# From MPC191633
423P/Lemmon,e,8.3386,33.2953,81.3206,6.187438,0.0640380,0.12265811,111.6841,07/11.0/2026,2000,g  8.0,4.0
# From MPC191633
425P/Kowalski,e,16.4023,210.0955,201.0406,6.355235,0.0615186,0.54311744,107.9533,07/11.0/2026,2000,g 12.0,4.0
# From MPC191633
426P/PANSTARRS,e,17.7838,280.3972,118.3748,3.186598,0.1732660,0.16068562,179.3684,07/11.0/2026,2000,g 13.5,4.0
# From MPEC 2026-L50
427P/ATLAS,e,11.8650,252.3245,99.5958,3.163574,0.1751609,0.31523559,212.1450,07/11.0/2026,2000,g 14.0,4.0
# From MPC191633
428P/Gibbs,e,8.5024,299.3053,36.8577,3.489920,0.1511753,0.51807496,285.1834,07/11.0/2026,2000,g 15.0,4.0
# From MPC191633
429P/LINEAR-Hill,e,7.5141,321.9931,75.7483,3.557011,0.1469184,0.49035691,242.6300,07/11.0/2026,2000,g 15.5,4.0
# From MPC191633
430P/Scotti,e,4.4765,54.6336,94.5034,3.102173,0.1803869,0.50056622,303.1088,07/11.0/2026,2000,g 16.5,4.0
# From MPC191633
431P/Scotti,e,22.3701,202.8201,200.0145,3.477958,0.1519559,0.47692896,244.4879,07/11.0/2026,2000,g 14.0,4.0
# From MPC191634
432P/PANSTARRS,e,10.0661,239.1271,105.2057,3.039082,0.1860332,0.24070190,330.7384,07/11.0/2026,2000,g 17.0,4.0
# From MPC191634
434P/Tenagra,e,6.3363,288.9107,128.4836,4.137858,0.1170956,0.27375403,201.2217,07/11.0/2026,2000,g 13.0,4.0
# From MPEC 2026-N12
435P/PANSTARRS,e,18.8739,98.5235,244.1589,3.022325,0.1875825,0.31744310,339.8196,07/11.0/2026,2000,g 17.0,4.0
# From MPC191634
437P/Lemmon-PANSTARRS,e,3.6878,245.8424,207.1806,4.571599,0.1008328,0.25470920,143.2225,07/11.0/2026,2000,g 13.0,4.0
# From MPEC 2026-L50
438P/Christensen,e,8.2804,260.1120,58.9205,3.854502,0.1302422,0.41413046,298.6623,07/11.0/2026,2000,g 14.5,4.0
# From MPC191634
439P/LINEAR,e,7.1106,56.3982,342.1341,3.492644,0.1509985,0.46869516,268.7847,07/11.0/2026,2000,g 13.5,4.0
# From MPEC 2026-L50
441P/PANSTARRS,e,2.5748,143.5894,178.7864,4.129839,0.1174368,0.19424059,35.8257,07/11.0/2026,2000,g 13.5,4.0
# From MPC191634
442P/McNaught,e,6.0618,31.7894,310.5926,4.946022,0.0896025,0.53305996,127.6407,07/11.0/2026,2000,g 13.5,4.0
# From MPEC 2026-L50
443P/PANSTARRS-Christensen,e,19.8885,108.9309,144.9880,4.123972,0.1176875,0.28277983,161.4222,07/11.0/2026,2000,g 13.5,4.0
# From MPC191635
445P/Lemmon-PANSTARRS,e,1.0899,126.6113,213.0045,4.041599,0.1213037,0.41522769,172.8626,07/11.0/2026,2000,g 15.0,4.0
# From MPC191635
447P/Sheppard-Tholen,e,7.4418,302.6390,97.1548,5.619645,0.0739845,0.17673890,105.7072,07/11.0/2026,2000,g 12.0,4.0
# From MPC191635
448P/PANSTARRS,e,12.1415,161.7429,218.7982,3.637639,0.1420609,0.41767228,199.5600,07/11.0/2026,2000,g 16.0,4.0
# From MPC191635
449P/Leonard,e,15.4660,242.5092,176.7932,3.599329,0.1443350,0.47957706,296.2982,07/11.0/2026,2000,g 16.0,4.0
# From MPEC 2026-KB8
450P/LONEOS,e,11.2237,123.7834,32.8301,7.459247,0.0483795,0.28362441,345.2661,07/11.0/2026,2000,g  6.5,4.0
# From MPC191635
451P/Christensen,e,26.4880,300.8611,186.8592,6.354778,0.0615253,0.55928879,81.2556,07/11.0/2026,2000,g 13.5,4.0
# From MPC191635
452P/Sheppard-Jewitt,e,6.4226,123.6584,37.1729,7.317660,0.0497904,0.42894854,58.3193,07/11.0/2026,2000,g  9.0,4.0
# From MPC191636
453P/WISE-Lemmon,e,27.0459,42.8729,70.9634,5.470455,0.0770316,0.58310657,94.3986,07/11.0/2026,2000,g 14.0,4.0
# From MPC191636
454P/PANSTARRS,e,19.8012,54.5849,20.2529,4.213348,0.1139628,0.36099827,164.7330,07/11.0/2026,2000,g 14.0,4.0
# From MPC191636
455P/PANSTARRS,e,14.1333,146.1702,237.5211,3.154466,0.1759200,0.30401312,216.8789,07/11.0/2026,2000,g 17.0,4.0
# From MPC191636
456P/PANSTARRS,e,16.9648,243.1375,233.0042,3.168584,0.1747456,0.11549555,79.0154,07/11.0/2026,2000,g 13.5,4.0
# From MPC191636
457P/Lemmon-PANSTARRS,e,5.2255,175.9528,104.3428,2.645647,0.2290374,0.11801418,158.0720,07/11.0/2026,2000,g 15.5,4.0
# From MPC191636
458P/Jahn,e,13.6219,1.5327,105.0199,3.860116,0.1299581,0.31712874,175.2949,07/11.0/2026,2000,g 14.0,4.0
# From MPC191636
459P/Catalina,e,7.1713,256.9780,205.2572,3.240598,0.1689532,0.57779539,208.6555,07/11.0/2026,2000,g 15.5,4.0
# From MPC191636
461P/WISE,e,18.3925,194.3649,174.8137,3.145279,0.1766913,0.56933026,307.6742,07/11.0/2026,2000,g 18.5,4.0
# From MPC191637
464P/PANSTARRS,e,21.6720,309.5737,267.4575,4.681978,0.0972882,0.28101754,119.6139,07/11.0/2026,2000,g 10.5,4.0
# From MPC191637
465P/Hill,e,25.8647,217.8936,140.9403,5.998513,0.0670871,0.61275456,77.8168,07/11.0/2026,2000,g 12.5,4.0
# From MPC191637
466P/PANSTARRS,e,16.7525,114.9429,195.6986,3.979008,0.1241772,0.45095576,154.1682,07/11.0/2026,2000,g 14.0,4.0
# From MPC191637
467P/LINEAR-Grauer,e,2.4797,43.2617,266.7482,5.821643,0.0701674,0.05404141,93.4724,07/11.0/2026,2000,g  9.0,4.0
# From MPC191637
468P/SidingSpring,e,50.4591,356.1378,322.5057,7.110093,0.0519866,0.44449921,50.0891,07/11.0/2026,2000,g 11.5,4.0
# From MPC191637
469P/PANSTARRS,e,20.1700,178.9592,43.5077,4.345256,0.1088131,0.30843451,23.3470,07/11.0/2026,2000,g 13.5,4.0
# From MPC191637
470P/PANSTARRS,e,8.8442,246.1505,151.5982,4.459943,0.1046430,0.38912347,98.1451,07/11.0/2026,2000,g 15.5,4.0
# From MPC191637
471P/LINEAR-Lemmon,e,4.7960,283.2989,94.6568,5.680823,0.0727926,0.62747794,68.0379,07/11.0/2026,2000,g 12.0,4.0
# From MPC194204
472P/NEAT-LINEAR,e,10.8313,205.7735,218.7501,7.747955,0.0457008,0.56310930,33.2672,07/11.0/2026,2000,g 10.5,4.0
# From MPC191638
473P/NEAT,e,56.8651,22.1906,42.9580,7.973559,0.0437750,0.82347645,37.9043,07/11.0/2026,2000,g 13.5,4.0
# From MPC191638
474P/Hogan,e,1.0967,26.7518,11.2586,3.131568,0.1778531,0.18764400,194.1969,07/11.0/2026,2000,g 15.5,4.0
# From MPC191638
475P/Spacewatch-LINEAR,e,14.5250,147.3457,40.4614,7.324897,0.0497166,0.44332318,38.2288,07/11.0/2026,2000,g 11.0,4.0
# From MPC191638
476P/PANSTARRS,e,19.0043,57.0515,46.7732,4.775142,0.0944549,0.34566908,59.7372,07/11.0/2026,2000,g 12.5,4.0
# From MPC191638
477P/PANSTARRS,e,8.9143,59.1340,305.8321,3.001142,0.1895720,0.41766434,175.8695,07/11.0/2026,2000,g 14.5,4.0
# From MPC191638
478P/ATLAS,e,12.5257,127.2571,13.3100,3.649367,0.1413767,0.34382500,113.0409,07/11.0/2026,2000,g 13.5,4.0
# From MPC191638
480P/PANSTARRS,e,13.7127,229.9875,214.5325,4.613382,0.0994661,0.24598353,116.7694,07/11.0/2026,2000,g 12.0,4.0
# From MPC191638
481P/Lemmon-PANSTARRS,e,6.0823,93.5538,356.8968,4.684451,0.0972111,0.34318828,106.6956,07/11.0/2026,2000,g 13.5,4.0
# From MPC191638
482P/PANSTARRS,e,24.4904,126.0693,339.7729,3.758011,0.1352904,0.49221667,153.5117,07/11.0/2026,2000,g 13.5,4.0
# From MPEC 2026-HI3
483P/PANSTARRS,e,14.1845,198.7799,50.0702,3.192186,0.1728112,0.22136232,275.2038,07/11.0/2026,2000,g 16.5,4.0
# From MPC186638
483P-A/PANSTARRS,e,14.1844,198.7800,50.0704,3.192186,0.1728112,0.22136270,275.2034,07/11.0/2026,2000,g 13.5,4.0
# From MPC185666
483P-B/PANSTARRS,e,14.1853,198.7796,50.0611,3.192099,0.1728182,0.22130674,275.2408,07/11.0/2026,2000,g 17.0,4.0
# From MPC191639
484P/Spacewatch,e,14.4751,265.3522,240.8843,3.755134,0.1354459,0.43329969,277.5809,07/11.0/2026,2000,g 16.0,4.0
# From MPC191639
485P/Sheppard-Tholen,e,10.0154,261.6510,196.1940,6.855053,0.0549146,0.41703656,57.6823,07/11.0/2026,2000,g 13.0,4.0
# From MPC194204
486P/Leonard,e,2.2098,219.0233,93.9306,3.626393,0.1427223,0.36324647,66.1162,07/11.0/2026,2000,g 14.5,4.0
# From MPC191639
487P/SidingSpring,e,39.3653,49.2024,0.8330,5.158999,0.0841116,0.64816813,52.8688,07/11.0/2026,2000,g 13.5,4.0
# From MPC191639
488P/NEAT-PANSTARRS,e,11.8454,322.3415,4.8579,3.802290,0.1329340,0.54622611,103.9157,07/11.0/2026,2000,g 16.5,4.0
# From MPEC 2024-Q14
489P/Denning,e,4.0259,20.5970,109.4241,4.423991,0.1059211,0.64704841,23.1646,07/11.0/2026,2000,g 15.5,4.0
# From MPEC 2026-N12
491P/Spacewatch-PANSTARRS,e,9.3669,311.6830,298.7992,5.012197,0.0878338,0.25879802,59.1492,07/11.0/2026,2000,g  9.5,4.0
# From MPC194204
